$$SOE
2461302.500000000, A.D. 2026-Sep-19 00:00:00.0000, 6.690657935774405E+07, 3.338608038124539E+08, -4.441623313480368E+07,
2461309.500000000, A.D. 2026-Sep-26 00:00:00.0000, 5.469166366235179E+07, 3.346113102155632E+08, -4.452089926277329E+07,
2461316.500000000, A.D. 2026-Oct-03 00:00:00.0000, 4.241032135955454E+07, 3.349556443417998E+08, -4.457151371572332E+07,
2461323.500000000, A.D. 2026-Oct-10 00:00:00.0000, 3.007681849757487E+07, 3.348883439555966E+08, -4.456734351307337E+07,
2461330.500000000, A.D. 2026-Oct-17 00:00:00.0000, 1.770585547831118E+07, 3.344044411395019E+08, -4.450772134276485E+07,
2461337.500000000, A.D. 2026-Oct-24 00:00:00.0000, 5.312552152576779E+06, 3.334994965698861E+08, -4.439205013562712E+07,
2461344.500000000, A.D. 2026-Oct-31 00:00:00.0000, -7.087569802240131E+06, 3.321696337835207E+08, -4.421980768293528E+07,
2461351.500000000, A.D. 2026-Nov-07 00:00:00.0000, -1.947860700562162E+07, 3.304115732842882E+08, -4.399055129232238E+07,
2461358.500000000, A.D. 2026-Nov-14 00:00:00.0000, -3.184429690366817E+07, 3.282226671336616E+08, -4.370392239614151E+07,
2461365.500000000, A.D. 2026-Nov-21 00:00:00.0000, -4.416804459844033E+07, 3.256009344452136E+08, -4.335965085733195E+07,
2461372.500000000, A.D. 2026-Nov-28 00:00:00.0000, -5.643295502691916E+07, 3.225450944838621E+08, -4.295755908850536E+07,
2461379.500000000, A.D. 2026-Dec-05 00:00:00.0000, -6.862186690278451E+07, 3.190545964006162E+08, -4.249756632652183E+07,
2461386.500000000, A.D. 2026-Dec-12 00:00:00.0000, -8.071738825549655E+07, 3.151296483979279E+08, -4.197969278191726E+07,
2461393.500000000, A.D. 2026-Dec-19 00:00:00.0000, -9.270193541197005E+07, 3.107712459940465E+08, -4.140406344326562E+07,
2461400.500000000, A.D. 2026-Dec-26 00:00:00.0000, -1.045577754929050E+08, 3.059811981648518E+08, -4.077091154424176E+07,
2461407.500000000, A.D. 2027-Jan-02 00:00:00.0000, -1.162670720451008E+08, 3.007621508230690E+08, -4.008058168667953E+07,
2461414.500000000, A.D. 2027-Jan-09 00:00:00.0000, -1.278119335461778E+08, 2.951176073160484E+08, -3.933353258471832E+07,
2461421.500000000, A.D. 2027-Jan-16 00:00:00.0000, -1.391744645495788E+08, 2.890519456195646E+08, -3.853033938978103E+07,
2461428.500000000, A.D. 2027-Jan-23 00:00:00.0000, -1.503368191785424E+08, 2.825704318623699E+08, -3.767169556032670E+07,
2461435.500000000, A.D. 2027-Jan-30 00:00:00.0000, -1.612812564933358E+08, 2.756792298185281E+08, -3.675841425408538E+07,
2461442.500000000, A.D. 2027-Feb-06 00:00:00.0000, -1.719901969813304E+08, 2.683854064131049E+08, -3.579142921347089E+07,
2461449.500000000, A.D. 2027-Feb-13 00:00:00.0000, -1.824462802702979E+08, 2.606969341998740E+08, -3.477179496790469E+07,
2461456.500000000, A.D. 2027-Feb-20 00:00:00.0000, -1.926324260327084E+08, 2.526226898052339E+08, -3.370068617468537E+07,
2461463.500000000, A.D. 2027-Feb-27 00:00:00.0000, -2.025318962434155E+08, 2.441724449520621E+08, -3.257939646680752E+07,
2461470.500000000, A.D. 2027-Mar-06 00:00:00.0000, -2.121283553014310E+08, 2.353568518486092E+08, -3.140933690753333E+07,
2461477.500000000, A.D. 2027-Mar-13 00:00:00.0000, -2.214059291334898E+08, 2.261874249164777E+08, -3.019203372875305E+07,
2461484.500000000, A.D. 2027-Mar-20 00:00:00.0000, -2.303492639024072E+08, 2.166765180102864E+08, -2.892912531689280E+07,
2461491.500000000, A.D. 2027-Mar-27 00:00:00.0000, -2.389435835979746E+08, 2.068372966183892E+08, -2.762235851356691E+07,
2461498.500000000, A.D. 2027-Apr-03 00:00:00.0000, -2.471747457891528E+08, 1.966837050932555E+08, -2.627358426506373E+07,
2461505.500000000, A.D. 2027-Apr-10 00:00:00.0000, -2.550292949675851E+08, 1.862304290933089E+08, -2.488475264476002E+07,
2461512.500000000, A.D. 2027-Apr-17 00:00:00.0000, -2.624945129685283E+08, 1.754928534423934E+08, -2.345790728050057E+07,
2461519.500000000, A.D. 2027-Apr-24 00:00:00.0000, -2.695584659230987E+08, 1.644870156245295E+08, -2.199517923615831E+07,
2461526.500000000, A.D. 2027-May-01 00:00:00.0000, -2.762100470080941E+08, 1.532295552772256E+08, -2.049878041690888E+07,
2461533.500000000, A.D. 2027-May-08 00:00:00.0000, -2.824390142922957E+08, 1.417376608175061E+08, -1.897099651636739E+07,
2461540.500000000, A.D. 2027-May-15 00:00:00.0000, -2.882360248322400E+08, 1.300290145842527E+08, -1.741417934800169E+07,
2461547.500000000, A.D. 2027-May-22 00:00:00.0000, -2.935926662962373E+08, 1.181217343771973E+08, -1.583073869320197E+07,
2461554.500000000, A.D. 2027-May-29 00:00:00.0000, -2.985014825282451E+08, 1.060343104316265E+08, -1.422313416080621E+07,
2461561.500000000, A.D. 2027-Jun-05 00:00:00.0000, -3.029559919852188E+08, 9.378554148139536E+07, -1.259386695051263E+07,
2461568.500000000, A.D. 2027-Jun-12 00:00:00.0000, -3.069507009492005E+08, 8.139447087071995E+07, -1.094547137206328E+07,
2461575.500000000, A.D. 2027-Jun-19 00:00:00.0000, -3.104811118122752E+08, 6.888032232209474E+07, -9.280506240232825E+06,
2461582.500000000, A.D. 2027-Jun-26 00:00:00.0000, -3.135437261805938E+08, 5.626243563995192E+07, -7.601546264579980E+06,
2461589.500000000, A.D. 2027-Jul-03 00:00:00.0000, -3.161360427505645E+08, 4.356020288346992E+07, -5.911173514854033E+06,
2461596.500000000, A.D. 2027-Jul-10 00:00:00.0000, -3.182565500660333E+08, 3.079300552035592E+07, -4.211969031583372E+06,
2461603.500000000, A.D. 2027-Jul-17 00:00:00.0000, -3.199047143220086E+08, 1.798015299797995E+07, -2.506504651669925E+06,
2461610.500000000, A.D. 2027-Jul-24 00:00:00.0000, -3.210809623107876E+08, 5.140823110183875E+06, -7.973351272535329E+05,
2461617.500000000, A.D. 2027-Jul-31 00:00:00.0000, -3.217866593950911E+08, -7.705995203286517E+06, 9.130093902000012E+05,
2461624.500000000, A.D. 2027-Aug-07 00:00:00.0000, -3.220240830415853E+08, -2.054155511622287E+07, 2.622030565478955E+06,
2461631.500000000, A.D. 2027-Aug-14 00:00:00.0000, -3.217963945803112E+08, -3.334740118010740E+07, 4.327268943528235E+06,
2461638.500000000, A.D. 2027-Aug-21 00:00:00.0000, -3.211076089658337E+08, -4.610541769962962E+07, 6.026310494629245E+06,
2461645.500000000, A.D. 2027-Aug-28 00:00:00.0000, -3.199625595203332E+08, -5.879787480409122E+07, 7.716792396694275E+06,
2461652.500000000, A.D. 2027-Sep-04 00:00:00.0000, -3.183668592506310E+08, -7.140746954698876E+07, 9.396408347318415E+06,
2461659.500000000, A.D. 2027-Sep-11 00:00:00.0000, -3.163268605439056E+08, -8.391736258227831E+07, 1.106291346521909E+07,
2461666.500000000, A.D. 2027-Sep-18 00:00:00.0000, -3.138496135178436E+08, -9.631121100228414E+07, 1.271412870701817E+07,
2461673.500000000, A.D. 2027-Sep-25 00:00:00.0000, -3.109428231923839E+08, -1.085731973919461E+08, 1.434794476926125E+07,
2461680.500000000, A.D. 2027-Oct-02 00:00:00.0000, -3.076148057843493E+08, -1.206880550952270E+08, 1.596232547313578E+07,
2461687.500000000, A.D. 2027-Oct-09 00:00:00.0000, -3.038744444651582E+08, -1.326410897677629E+08, 1.755531063586988E+07,
2461694.500000000, A.D. 2027-Oct-16 00:00:00.0000, -2.997311448701356E+08, -1.444181973757564E+08, 1.912501842996221E+07,
2461701.500000000, A.D. 2027-Oct-23 00:00:00.0000, -2.951947904320086E+08, -1.560058787756954E+08, 2.066964722262159E+07,
2461708.500000000, A.D. 2027-Oct-30 00:00:00.0000, -2.902756974659705E+08, -1.673912504122060E+08, 2.218747693179341E+07,
2461715.500000000, A.D. 2027-Nov-06 00:00:00.0000, -2.849845714360645E+08, -1.785620501721533E+08, 2.367687012114017E+07,
2461722.500000000, A.D. 2027-Nov-13 00:00:00.0000, -2.793324666211953E+08, -1.895066406570846E+08, 2.513627287144923E+07,
2461729.500000000, A.D. 2027-Nov-20 00:00:00.0000, -2.733307464850157E+08, -2.002140122627679E+08, 2.656421501053717E+07,
2461736.500000000, A.D. 2027-Nov-27 00:00:00.0000, -2.669910433113184E+08, -2.106737833121444E+08, 2.795930982417076E+07,
2461743.500000000, A.D. 2027-Dec-04 00:00:00.0000, -2.603252192764857E+08, -2.208761965405051E+08, 2.932025353734869E+07,
2461750.500000000, A.D. 2027-Dec-11 00:00:00.0000, -2.533453296275295E+08, -2.308121131119762E+08, 3.064582456617680E+07,
2461757.500000000, A.D. 2027-Dec-18 00:00:00.0000, -2.460635877836558E+08, -2.404730047242926E+08, 3.193488251553396E+07,
2461764.500000000, A.D. 2027-Dec-25 00:00:00.0000, -2.384923322816278E+08, -2.498509440207716E+08, 3.318636693675889E+07,
2461771.500000000, A.D. 2028-Jan-01 00:00:00.0000, -2.306439955753263E+08, -2.589385935049775E+08, 3.439929587101666E+07,
$$EOE